{
  "links" : {
    "next" : "https://api.nasa.gov/neo/rest/v1/feed?start_date=2008-12-23&end_date=2008-12-23&detailed=true&api_key=t0TVs3DtDT2H8Oy2Zy8m2eVrNsAVKAexjcZXUckd",
    "prev" : "https://api.nasa.gov/neo/rest/v1/feed?start_date=2008-12-21&end_date=2008-12-21&detailed=true&api_key=t0TVs3DtDT2H8Oy2Zy8m2eVrNsAVKAexjcZXUckd",
    "self" : "https://api.nasa.gov/neo/rest/v1/feed?start_date=2008-12-22&end_date=2008-12-22&detailed=true&api_key=t0TVs3DtDT2H8Oy2Zy8m2eVrNsAVKAexjcZXUckd"
  },
  "element_count" : 8,
  "near_earth_objects" : {
    "2008-12-22" : [ {
      "links" : {
        "self" : "https://api.nasa.gov/neo/rest/v1/neo/3680251?api_key=t0TVs3DtDT2H8Oy2Zy8m2eVrNsAVKAexjcZXUckd"
      },
      "neo_reference_id" : "3680251",
      "name" : "(2014 PC58)",
      "nasa_jpl_url" : "http://ssd.jpl.nasa.gov/sbdb.cgi?sstr=3680251",
      "absolute_magnitude_h" : 21.5,
      "estimated_diameter" : {
        "kilometers" : {
          "estimated_diameter_min" : 0.1332155667,
          "estimated_diameter_max" : 0.2978790628
        },
        "meters" : {
          "estimated_diameter_min" : 133.2155666981,
          "estimated_diameter_max" : 297.8790627982
        },
        "miles" : {
          "estimated_diameter_min" : 0.0827762899,
          "estimated_diameter_max" : 0.1850934111
        },
        "feet" : {
          "estimated_diameter_min" : 437.0589598459,
          "estimated_diameter_max" : 977.2935443908
        }
      },
      "is_potentially_hazardous_asteroid" : false,
      "close_approach_data" : [ {
        "close_approach_date" : "2008-12-22",
        "epoch_date_close_approach" : 1229932800000,
        "relative_velocity" : {
          "kilometers_per_second" : "17.3148693638",
          "kilometers_per_hour" : "62333.529709559",
          "miles_per_hour" : "38731.6312798091"
        },
        "miss_distance" : {
          "astronomical" : "0.3528111511",
          "lunar" : "137.2435455322",
          "kilometers" : "52779800",
          "miles" : "32795846"
        },
        "orbiting_body" : "Earth"
      } ],
      "orbital_data" : {
        "orbit_id" : "11",
        "orbit_determination_date" : "2017-04-06 08:39:21",
        "orbit_uncertainty" : "4",
        "minimum_orbit_intersection" : ".168508",
        "jupiter_tisserand_invariant" : "3.566",
        "epoch_osculation" : "2458000.5",
        "eccentricity" : ".5223356412637497",
        "semi_major_axis" : "2.058593024953411",
        "inclination" : "14.57850340549121",
        "ascending_node_longitude" : "136.2169576841416",
        "orbital_period" : "1078.832875377944",
        "perihelion_distance" : ".9833165171632887",
        "perihelion_argument" : "258.268486713059",
        "aphelion_distance" : "3.133869532743533",
        "perihelion_time" : "2458025.989821656196",
        "mean_anomaly" : "351.4942008112091",
        "mean_motion" : ".3336939466864898",
        "equinox" : "J2000"
      }
    }, {
      "links" : {
        "self" : "https://api.nasa.gov/neo/rest/v1/neo/3739389?api_key=t0TVs3DtDT2H8Oy2Zy8m2eVrNsAVKAexjcZXUckd"
      },
      "neo_reference_id" : "3739389",
      "name" : "(2016 AE65)",
      "nasa_jpl_url" : "http://ssd.jpl.nasa.gov/sbdb.cgi?sstr=3739389",
      "absolute_magnitude_h" : 24.7,
      "estimated_diameter" : {
        "kilometers" : {
          "estimated_diameter_min" : 0.0305179233,
          "estimated_diameter_max" : 0.0682401509
        },
        "meters" : {
          "estimated_diameter_min" : 30.5179232594,
          "estimated_diameter_max" : 68.2401509401
        },
        "miles" : {
          "estimated_diameter_min" : 0.0189629525,
          "estimated_diameter_max" : 0.0424024508
        },
        "feet" : {
          "estimated_diameter_min" : 100.1244233463,
          "estimated_diameter_max" : 223.8850168104
        }
      },
      "is_potentially_hazardous_asteroid" : false,
      "close_approach_data" : [ {
        "close_approach_date" : "2008-12-22",
        "epoch_date_close_approach" : 1229932800000,
        "relative_velocity" : {
          "kilometers_per_second" : "14.1053281528",
          "kilometers_per_hour" : "50779.1813499173",
          "miles_per_hour" : "31552.2085448972"
        },
        "miss_distance" : {
          "astronomical" : "0.1883201703",
          "lunar" : "73.2565460205",
          "kilometers" : "28172298",
          "miles" : "17505454"
        },
        "orbiting_body" : "Earth"
      } ],
      "orbital_data" : {
        "orbit_id" : "5",
        "orbit_determination_date" : "2017-04-06 08:29:20",
        "orbit_uncertainty" : "8",
        "minimum_orbit_intersection" : ".0118074",
        "jupiter_tisserand_invariant" : "6.928",
        "epoch_osculation" : "2457396.5",
        "eccentricity" : ".2996615433228109",
        "semi_major_axis" : ".844561310840695",
        "inclination" : "3.338213500978191",
        "ascending_node_longitude" : "281.5377818674675",
        "orbital_period" : "283.4948675818506",
        "perihelion_distance" : ".5914787650034361",
        "perihelion_argument" : "31.03841076201242",
        "aphelion_distance" : "1.097643856677954",
        "perihelion_time" : "2457293.400621184493",
        "mean_anomaly" : "130.9222163003232",
        "mean_motion" : "1.269864259168857",
        "equinox" : "J2000"
      }
    } ]
  }
}